[{"OBJECT_NAME":"GRUS-1C","OBJECT_ID":"2021-022B","EPOCH":"2026-03-09T22:02:59.067744","MEAN_MOTION":14.98740486,"ECCENTRICITY":0.00125084,"INCLINATION":97.5524,"RA_OF_ASC_NODE":315.2446,"ARG_OF_PERICENTER":300.8214,"MEAN_ANOMALY":59.1778,"EPHEMERIS_TYPE":0,"CLASSIFICATION_TYPE":"U","NORAD_CAT_ID":47933,"ELEMENT_SET_NO":999,"REV_AT_EPOCH":27103,"BSTAR":0.00015887452,"MEAN_MOTION_DOT":1.857e-5,"MEAN_MOTION_DDOT":0},{"OBJECT_NAME":"STARLINK-5477","OBJECT_ID":"2023-021AH","EPOCH":"2026-03-09T15:20:47.994432","MEAN_MOTION":14.98322466,"ECCENTRICITY":0.00029945,"INCLINATION":70.0012,"RA_OF_ASC_NODE":164.7194,"ARG_OF_PERICENTER":271.0694,"MEAN_ANOMALY":89.0122,"EPHEMERIS_TYPE":0,"CLASSIFICATION_TYPE":"U","NORAD_CAT_ID":55659,"ELEMENT_SET_NO":999,"REV_AT_EPOCH":16926,"BSTAR":-0.00017888098,"MEAN_MOTION_DOT":-2.226e-5,"MEAN_MOTION_DDOT":0}]
